NORAD_CAT_ID,OBJECT_NAME,OBJECT_TYPE,EPOCH,MEAN_MOTION,ECCENTRICITY,INCLINATION,RA_OF_ASC_NODE,ARG_OF_PERICENTER,MEAN_ANOMALY,BSTAR,MEAN_MOTION_DOT,MEAN_MOTION_DDOT,TLE_LINE0,TLE_LINE1,TLE_LINE2,SEMIMAJOR_AXIS,PERIOD,APOGEE,PERIGEE,DECAYED
53744.0,STARLINK-4670,PAYLOAD,2022-11-27 14:00:01,15.08790378,0.0001513,53.215,242.5861,66.2373,180.1806,0.0020715,0.00032789,0.0,0 STARLINK-4670,1 53744U 22107AW  22331.58334491  .00032789  00000-0  20715-2 0  9999,2 53744  53.2150 242.5861 0001513  66.2373 180.1806 15.08790378 12933,6918.031999999997,95.441,540.944,538.85,0.0
53744.0,STARLINK-4670,PAYLOAD,2022-11-27 22:00:00,15.08825312,0.000162,53.2149,241.0908,66.0182,191.9451,-0.0010839,-0.0001749,0.0,0 STARLINK-4670,1 53744U 22107AW  22331.91667824 -.00017490  00000-0 -10839-2 0  9995,2 53744  53.2149 241.0908 0001620  66.0182 191.9451 15.08825312  1304,6917.925,95.438,540.911,538.67,0.0
53744.0,STARLINK-4670,PAYLOAD,2022-11-28 14:00:01,15.08812713,0.0001598,53.2144,238.097,67.5376,213.5855,0.0033538,0.00053453,0.0,0 STARLINK-4670,1 53744U 22107AW  22332.58334491  .00053453  00000-0  33538-2 0  9998,2 53744  53.2144 238.0970 0001598  67.5376 213.5855 15.08812713 13087,6917.964,95.439,540.934,538.7230000000002,0.0
53744.0,STARLINK-4670,PAYLOAD,2022-11-28 22:00:01,15.08856549,0.0001704,53.2144,236.6015,65.8417,226.9242,-0.00097741,-0.00015817,0.0,0 STARLINK-4670,1 53744U 22107AW  22332.91668981 -.00015817  00000-0 -97741-3 0  9990,2 53744  53.2144 236.6015 0001704  65.8417 226.9242 15.08856549  1302,6917.83,95.437,540.874,538.516,0.0
53744.0,STARLINK-4670,PAYLOAD,2022-11-29 06:00:00,15.08860211,0.0001689,53.2142,235.1058,59.1974,245.1124,-0.0012715,-0.00020478,0.0,0 STARLINK-4670,1 53744U 22107AW  22333.25001157 -.00020478  00000-0 -12715-2 0  9990,2 53744  53.2142 235.1058 0001689  59.1974 245.1124 15.08860211 13189,6917.819,95.436,540.852,538.515,0.0
53744.0,STARLINK-4670,PAYLOAD,2022-11-29 14:00:01,15.08822049,0.0001516,53.2144,233.6074,65.1809,250.8099,0.00063996,9.907e-05,0.0,0 STARLINK-4670,1 53744U 22107AW  22333.58335648  .00009907  00000-0  63996-3 0  9991,2 53744  53.2144 233.6074 0001516  65.1809 250.8099 15.08822049  1307,6917.935,95.439,540.849,538.751,0.0
53744.0,STARLINK-4670,PAYLOAD,2022-11-29 22:00:00,15.08833165,0.0001609,53.2146,232.1121,61.6083,265.8969,-0.0009461,-0.00015311,0.0,0 STARLINK-4670,1 53744U 22107AW  22333.91667824 -.00015311  00000-0 -94610-3 0  9997,2 53744  53.2146 232.1121 0001609  61.6083 265.8969 15.08833165  1307,6917.901,95.438,540.879,538.653,0.0
53744.0,STARLINK-4670,PAYLOAD,2022-11-30 14:00:01,15.08815818,0.0001530999999999,53.2151,229.1187,65.4336,285.3112,0.0037408,0.00059712,0.0,0 STARLINK-4670,1 53744U 22107AW  22334.58335648  .00059712  00000-0  37408-2 0  9999,2 53744  53.2151 229.1187 0001531  65.4336 285.3112 15.08815818 13392,6917.954000000002,95.439,540.878,538.76,0.0
53744.0,STARLINK-4670,PAYLOAD,2022-11-30 22:00:00,15.08890345,0.0001619,53.2161,227.6257,65.3473,296.9196,-0.0068405,-0.0010768,0.0,0 STARLINK-4670,1 53744U 22107AW  22334.91667824 -.00107680  00000-0 -68405-2 0  9991,2 53744  53.2161 227.6257 0001619  65.3473 296.9196 15.08890345  1308,6917.727,95.434,540.711,538.472,0.0
53744.0,STARLINK-4670,PAYLOAD,2022-12-01 06:00:00,15.08830623,0.0001636999999999,53.2152,226.1273,54.6681,319.1971,0.00051823,7.967e-05,0.0,0 STARLINK-4670,1 53744U 22107AW  22335.25001157  .00007967  00000-0  51823-3 0  9992,2 53744  53.2152 226.1273 0001637  54.6681 319.1971 15.08830623 13497,6917.909000000002,95.438,540.9069999999998,538.6419999999998,0.0
53744.0,STARLINK-4670,PAYLOAD,2022-12-01 14:00:01,15.08821159,0.0001512,53.2155,224.6286,63.5419,321.9352,0.0038085,0.00060816,0.0,0 STARLINK-4670,1 53744U 22107AW  22335.58334491  .00060816  00000-0  38085-2 0  9994,2 53744  53.2155 224.6286 0001512  63.5419 321.9352 15.08821159  1302,6917.938,95.439,540.849,538.757,0.0
53744.0,STARLINK-4670,PAYLOAD,2022-12-01 22:00:00,15.08813171,0.0001524,53.217,223.1375,66.8426,330.2264,0.00099475,0.00015567,0.0,0 STARLINK-4670,1 53744U 22107AW  22335.91667824  .00015567  00000-0  99475-3 0  9994,2 53744  53.2170 223.1375 0001524  66.8426 330.2264 15.08813171  1309,6917.962,95.439,540.882,538.773,0.0
53744.0,STARLINK-4670,PAYLOAD,2022-12-02 14:00:01,15.08819035,0.0001433,53.2158,220.1393,62.2494,357.99800000000016,0.0034409,0.00054869,0.0,0 STARLINK-4670,1 53744U 22107AW  22336.58334491  .00054869  00000-0  34409-2 0  9992,2 53744  53.2158 220.1393 0001433  62.2494 357.9980 15.08819035 13697,6917.944,95.439,540.8009999999998,538.818,0.0
53744.0,STARLINK-4670,PAYLOAD,2022-12-02 22:00:00,15.08868022,0.000154,53.2159,218.6445,56.8492,14.9892,-0.0039958,-0.0006337,0.0,0 STARLINK-4670,1 53744U 22107AW  22336.91667824 -.00063370  00000-0 -39958-2 0  9991,2 53744  53.2159 218.6445 0001540  56.8492  14.9892 15.08868022  1301,6917.795,95.436,540.725,538.594,0.0
53744.0,STARLINK-4670,PAYLOAD,2022-12-03 08:00:01,15.08847649,0.000145,53.2157,216.7734,55.916,120.4163,-0.00166,-0.00026615,0.0,0 STARLINK-4670,1 53744U 22107AW  22337.33334491 -.00026615  00000-0 -16600-2 0  9999,2 53744  53.2157 216.7734 0001450  55.9160 120.4163 15.08847649 13805,6917.857,95.437,540.725,538.719,0.0
53744.0,STARLINK-4670,PAYLOAD,2022-12-03 14:00:01,15.08816396,0.0001367,53.2158,215.6502,62.3341,32.6981,0.0030588,0.00048698,0.0,0 STARLINK-4670,1 53744U 22107AW  22337.58334491  .00048698  00000-0  30588-2 0  9990,2 53744  53.2158 215.6502 0001367  62.3341  32.6981 15.08816396  1306,6917.953,95.439,540.763,538.872,0.0
53744.0,STARLINK-4670,PAYLOAD,2022-12-03 22:00:00,15.08862622,0.0001555,53.2157,214.1555,58.0851,48.5326,-0.0033475,-0.00053203,0.0,0 STARLINK-4670,1 53744U 22107AW  22337.91667824 -.00053203  00000-0 -33475-2 0  9994,2 53744  53.2157 214.1555 0001555  58.0851  48.5326 15.08862622  1306,6917.811,95.436,540.752,538.601,0.0
53744.0,STARLINK-4670,PAYLOAD,2022-12-04 14:00:01,15.08813051,0.0001515,53.2153,211.1613,66.5694,63.2326,0.0026777,0.00042554,0.0,0 STARLINK-4670,1 53744U 22107AW  22338.58334491  .00042554  00000-0  26777-2 0  9991,2 53744  53.2153 211.1613 0001515  66.5694  63.2326 15.08813051  1305,6917.9630000000025,95.439,540.876,538.78,0.0
53744.0,STARLINK-4670,PAYLOAD,2022-12-04 22:00:00,15.08840878,0.0001649,53.2151,209.6667,61.2323,80.1513,-0.00054621,-8.971e-05,0.0,0 STARLINK-4670,1 53744U 22107AW  22338.91667824 -.00008971  00000-0 -54621-3 0  9994,2 53744  53.2151 209.6667 0001649  61.2323  80.1513 15.08840878  1306,6917.878000000002,95.437,540.883,538.602,0.0
53744.0,STARLINK-4670,PAYLOAD,2022-12-05 06:00:00,15.08858893,0.0001648,53.2146,208.1699,60.1081,92.8662,-0.00095463,-0.00015457,0.0,0 STARLINK-4670,1 53744U 22107AW  22339.25001157 -.00015457  00000-0 -95463-3 0  9999,2 53744  53.2146 208.1699 0001648  60.1081  92.8662 15.08858893 14098,6917.823,95.436,540.828,538.548,0.0
53744.0,STARLINK-4670,PAYLOAD,2022-12-05 14:00:01,15.08851251,0.0001635,53.2146,206.6723,69.00399999999999,95.6424,-0.00021972,-3.784e-05,0.0,0 STARLINK-4670,1 53744U 22107AW  22339.58335648 -.00003784  00000-0 -21972-3 0  9994,2 53744  53.2146 206.6723 0001635  69.0040  95.6424 15.08851251  1306,6917.846,95.437,540.842,538.58,0.0
53744.0,STARLINK-4670,PAYLOAD,2022-12-05 19:37:58,15.08852831,0.0001615,53.2154,205.6193,61.5583,298.5571,0.00035692,5.399e-05,0.0,0 STARLINK-4670,1 53744U 22107AW  22339.81803902  .00005399  00000-0  35692-3 0  9999,2 53744  53.2154 205.6193 0001615  61.5583 298.5571 15.08852831 14184,6917.840999999999,95.437,540.823,538.589,0.0
53744.0,STARLINK-4670,PAYLOAD,2022-12-06 01:59:31,15.08842704,0.0001592,53.2146,204.4302,62.3439,297.7715,0.00012744,1.741e-05,0.0,0 STARLINK-4670,1 53744U 22107AW  22340.08300153  .00001741  00000-0  12744-3 0  9990,2 53744  53.2146 204.4302 0001592  62.3439 297.7715 15.08842704 14221,6917.871999999999,95.437,540.8380000000002,538.636,0.0
53744.0,STARLINK-4670,PAYLOAD,2022-12-06 08:21:03,15.08842677,0.00016,53.2146,203.2408,60.5041,299.611,0.00012143,1.645e-05,0.0,0 STARLINK-4670,1 53744U 22107AW  22340.34796152  .00001645  00000-0  12143-3 0  9993,2 53744  53.2146 203.2408 0001600  60.5041 299.6110 15.08842677 15044,6917.871999999999,95.437,540.844,538.63,0.0
53744.0,STARLINK-4670,PAYLOAD,2022-12-06 17:53:23,15.08837028,0.0001791,53.2151,201.4561,63.6983,296.4193,4.5818e-05,4.41e-06,0.0,0 STARLINK-4670,1 53744U 22107AW  22340.74540634  .00000441  00000-0  45818-4 0  9998,2 53744  53.2151 201.4561 0001791  63.6983 296.4193 15.08837028 15107,6917.889,95.438,540.993,538.515,0.0
53744.0,STARLINK-4670,PAYLOAD,2022-12-07 20:54:56,15.088437300000002,0.0001848,53.2166,196.4012,64.7003,295.418,0.00011147,1.487e-05,0.0,0 STARLINK-4670,1 53744U 22107AW  22341.87148931  .00001487  00000-0  11147-3 0  9995,2 53744  53.2166 196.4012 0001848  64.7003 295.4180 15.08843730 14498,6917.869000000002,95.437,541.012,538.456,0.0
53744.0,STARLINK-4670,PAYLOAD,2022-12-08 08:02:38,15.08849419,0.0002158,53.2168,194.3197,52.1018,308.0169,0.00030907,4.635e-05,0.0,0 STARLINK-4670,1 53744U 22107AW  22342.33516749  .00004635  00000-0  30907-3 0  9996,2 53744  53.2168 194.3197 0002158  52.1018 308.0169 15.08849419 15346,6917.852,95.437,541.2090000000002,538.224,0.0
53744.0,STARLINK-4670,PAYLOAD,2022-12-08 20:45:43,15.08839768,0.000125,53.216,191.9407,51.2671,308.8432,0.00018564,2.668e-05,0.0,0 STARLINK-4670,1 53744U 22107AW  22342.86508856  .00002668  00000-0  18564-3 0  9993,2 53744  53.2160 191.9407 0001250  51.2671 308.8432 15.08839768 14641,6917.880999999999,95.438,540.611,538.881,0.0
53744.0,STARLINK-4670,PAYLOAD,2022-12-09 01:31:53,15.08842491,0.0001724,53.2164,191.0489,62.0918,298.0249,0.0001999,2.895e-05,0.0,0 STARLINK-4670,1 53744U 22107AW  22343.06381014  .00002895  00000-0  19990-3 0  9997,2 53744  53.2164 191.0489 0001724  62.0918 298.0249 15.08842491 15459,6917.873000000001,95.437,540.93,538.545,0.0
